[{"OBJECT_NAME":"JILIN-1 GAOFEN 03D12","OBJECT_ID":"2022-019T","EPOCH":"2026-03-09T23:55:09.134400","MEAN_MOTION":15.69542894,"ECCENTRICITY":0.00024096,"INCLINATION":97.3665,"RA_OF_ASC_NODE":160.1413,"ARG_OF_PERICENTER":153.7003,"MEAN_ANOMALY":206.4382,"EPHEMERIS_TYPE":0,"CLASSIFICATION_TYPE":"U","NORAD_CAT_ID":51841,"ELEMENT_SET_NO":999,"REV_AT_EPOCH":22441,"BSTAR":0.0010852586,"MEAN_MOTION_DOT":0.00129444,"MEAN_MOTION_DDOT":0},{"OBJECT_NAME":"STARLINK-11235 [DTC]","OBJECT_ID":"2024-152G","EPOCH":"2026-03-09T10:10:27.785280","MEAN_MOTION":15.69707961,"ECCENTRICITY":0.00013224,"INCLINATION":53.1585,"RA_OF_ASC_NODE":117.5442,"ARG_OF_PERICENTER":102.5765,"MEAN_ANOMALY":257.5401,"EPHEMERIS_TYPE":0,"CLASSIFICATION_TYPE":"U","NORAD_CAT_ID":60726,"ELEMENT_SET_NO":999,"REV_AT_EPOCH":8892,"BSTAR":2.2908377e-5,"MEAN_MOTION_DOT":2.187e-5,"MEAN_MOTION_DDOT":0}]
